STARLINK-33972          
1 63893U 25095D   26165.24291002  .00016094  00000+0  59279-3 0  9994
2 63893  43.0030 351.0023 0001339 263.4933  96.5766 15.27597075 62556
STARLINK-33973          
1 63894U 25095E   26166.18772522  .00017616  00000+0  64773-3 0  9996
2 63894  42.9912 345.1883 0002688 281.5234  78.5315 15.27599206 62700
STARLINK-34119          
1 63895U 25095F   26165.78014120  .00017539  00000+0  64509-3 0  9996
2 63895  43.0002 348.1526 0002477 280.1514  79.9058 15.27593094 62632
STARLINK-34143          
1 63896U 25095G   26165.23134130  .00019919  00000+0  73107-3 0  9999
2 63896  43.0066 350.9136 0003763 264.7100  95.3323 15.27590860 62555
STARLINK-33957          
1 63897U 25095H   26165.78399987  .00024041  00000+0  87995-3 0  9995
2 63897  43.0015 348.1839 0001668 265.8536  94.2125 15.27593531 62620
STARLINK-34120          
1 63898U 25095J   26166.18387067  .00016411  00000+0  60425-3 0  9998
2 63898  42.9997 345.1601 0002118 268.4579  91.6030 15.27596196 62704
STARLINK-34134          
1 63899U 25095K   26165.76986762  .00015860  00000+0  58412-3 0  9999
2 63899  43.0091 348.0781 0002435 278.0735  81.9840 15.27607162 62635
STARLINK-34118          
1 63900U 25095L   26165.77628924  .00019520  00000+0  71668-3 0  9991
2 63900  43.0041 348.1245 0003178 272.8343  87.2145 15.27591981 62639
STARLINK-34125          
1 63901U 25095M   26165.23905303  .00017130  00000+0  63083-3 0  9999
2 63901  43.0037 350.9717 0002770 260.6666  99.3872 15.27565752 62548
STARLINK-33955          
1 63902U 25095N   26166.19029469  .00017834  00000+0  65569-3 0  9998
2 63902  43.0005 345.2060 0002388 273.6133  86.4446 15.27595944 62696
STARLINK-34097          
1 63903U 25095P   26165.22877490  .00017887  00000+0  65762-3 0  9990
2 63903  42.9984 350.8933 0003193 263.4292  96.6196 15.27593908 62547
STARLINK-34092          
1 63904U 25095Q   26164.80063122  .00019085  00000+0  70105-3 0  9992
2 63904  43.0044 353.7039 0000322 209.1337 150.9497 15.27589732 62474
STARLINK-34114          
1 63905U 25095R   26165.78913549  .00016354  00000+0  60214-3 0  9994
2 63905  43.0019 348.2246 0001660 279.3767  80.6897 15.27599096 62622
STARLINK-33770          
1 63906U 25095S   26166.19930345  .00012162  00000+0  45069-3 0  9998
2 63906  43.0018 345.2712 0000363 354.3938   5.6910 15.27583081 62697
STARLINK-34106          
1 63907U 25095T   26166.19543934  .00017975  00000+0  66091-3 0  9998
2 63907  42.9933 345.2395 0002408 270.8602  89.1974 15.27589296 62692
STARLINK-34083          
1 63908U 25095U   26165.78528450  .00026459  00000+0  96705-3 0  9991
2 63908  43.0033 348.1939 0002011 271.8984  88.1638 15.27596900 62625
STARLINK-34066          
1 63909U 25095V   26165.77114692  .00015973  00000+0  58792-3 0  9993
2 63909  43.0066 348.0861 0003120 272.5141  87.5353 15.27621443 62628
STARLINK-34071          
1 63910U 25095W   26165.77757259  .00015013  00000+0  55386-3 0  9998
2 63910  42.9989 348.1295 0001406 253.2834 106.7864 15.27586765 62622
STARLINK-34038          
1 63911U 25095X   26165.24033808  .00019448  00000+0  71411-3 0  9991
2 63911  43.0059 350.9793 0003717 267.5777  92.4649 15.27588062 62543
STARLINK-34031          
1 63912U 25095Y   26165.24420053  .00023689  00000+0  86728-3 0  9993
2 63912  43.0020 351.0080 0002050 270.6514  89.4103 15.27591324 62542
STARLINK-34070          
1 63913U 25095Z   26165.23649662  .00023377  00000+0  85599-3 0  9991
2 63913  43.0038 350.9491 0001055 280.1728  79.9005 15.27593067 62544
STARLINK-34068          
1 63914U 25095AA  26165.81467986  .00015214  00000+0  56124-3 0  9996
2 63914  43.0247 347.5420 0002002  60.1709 299.9342 15.27582682 62638
STARLINK-34076          
1 63915U 25095AB  26165.23264135  .00019873  00000+0  72959-3 0  9993
2 63915  43.0022 350.9180 0001046 289.1693  70.9046 15.27587697 62542
STARLINK-33910          
1 63916U 25095AC  26166.19157743  .00019433  00000+0  71328-3 0  9997
2 63916  42.9994 345.2115 0002237 277.9023  82.1575 15.27604757 62694
STARLINK-34075          
1 63917U 25095AD  26165.81083073  .00013974  00000+0  51612-3 0  9998
2 63917  43.0045 347.5154 0003223 279.7197  80.3290 15.27593822 62638
YAOGAN-40 02A           
1 63918U 25096A   26166.15573272  .00000120  00000+0  55009-4 0  9997
2 63918  85.9957 188.8791 0002707  91.5166 268.6327 14.12447677 56286
YAOGAN-40 02B           
1 63919U 25096B   26166.15588563  .00000154  00000+0  73539-4 0  9992
2 63919  85.9951 188.8491 0002335  98.7406 261.4041 14.12447807 56280
YAOGAN-40 02C           
1 63920U 25096C   26166.15580885  .00000153  00000+0  72627-4 0  9999
2 63920  85.9955 188.1258 0002576  90.1961 269.9518 14.12447475 75126
TJS-19                  
1 63924U 25097A   26165.75851640 -.00000270  00000+0  00000+0 0  9991
2 63924   3.2906 317.4031 0002317 241.3714 118.5316  1.00266243  4115
STARLINK-34012          
1 63926U 25098A   26166.05394350  .00001123  00000+0  10187-3 0  9996
2 63926  70.0018  29.0943 0002963 269.4141  90.6678 14.98340356 61172
