OBJECT_NAME,OBJECT_ID,EPOCH,MEAN_MOTION,ECCENTRICITY,INCLINATION,RA_OF_ASC_NODE,ARG_OF_PERICENTER,MEAN_ANOMALY,EPHEMERIS_TYPE,CLASSIFICATION_TYPE,NORAD_CAT_ID,ELEMENT_SET_NO,REV_AT_EPOCH,BSTAR,MEAN_MOTION_DOT,MEAN_MOTION_DDOT
STARLINK-33972,2025-095D,2026-06-14T05:49:47.425728,15.27597075,.0001339,43.0030,351.0023,263.4933,96.5766,0,U,63893,999,6255,.59279E-3,.16094E-3,0
STARLINK-33973,2025-095E,2026-06-15T04:30:19.459008,15.27599206,.0002688,42.9912,345.1883,281.5234,78.5315,0,U,63894,999,6270,.64773E-3,.17616E-3,0
STARLINK-34119,2025-095F,2026-06-14T18:43:24.199680,15.27593094,.00024778,43.0002,348.1526,280.1514,79.9058,0,U,63895,999,6263,.64509425E-3,.17539E-3,0
STARLINK-34143,2025-095G,2026-06-14T05:33:07.888320,15.27590860,.0003763,43.0066,350.9136,264.7100,95.3323,0,U,63896,999,6255,.73107E-3,.19919E-3,0
STARLINK-33957,2025-095H,2026-06-14T18:48:57.588768,15.27593531,.00016688,43.0015,348.1839,265.8536,94.2125,0,U,63897,999,6262,.8799505E-3,.24041E-3,0
STARLINK-34120,2025-095J,2026-06-15T04:24:46.425888,15.27596196,.0002118,42.9997,345.1601,268.4579,91.6030,0,U,63898,999,6270,.60425E-3,.16411E-3,0
STARLINK-34134,2025-095K,2026-06-14T18:28:36.562368,15.27607162,.00024351,43.0091,348.0781,278.0735,81.9840,0,U,63899,999,6263,.58411626E-3,.1586E-3,0
STARLINK-34118,2025-095L,2026-06-14T18:37:51.390336,15.27591981,.00031783,43.0041,348.1245,272.8343,87.2145,0,U,63900,999,6263,.71667839E-3,.1952E-3,0
STARLINK-34125,2025-095M,2026-06-14T05:44:14.181792,15.27565752,.000277,43.0037,350.9717,260.6666,99.3872,0,U,63901,999,6254,.63083E-3,.1713E-3,0
STARLINK-33955,2025-095N,2026-06-15T04:34:01.461216,15.27595944,.0002388,43.0005,345.2060,273.6133,86.4446,0,U,63902,999,6269,.65569E-3,.17834E-3,0
STARLINK-34097,2025-095P,2026-06-14T05:29:26.151360,15.27593908,.0003193,42.9984,350.8933,263.4292,96.6196,0,U,63903,999,6254,.65762E-3,.17887E-3,0
STARLINK-34092,2025-095Q,2026-06-13T19:12:54.537408,15.27589732,.00003229,43.0044,353.7039,209.1337,150.9497,0,U,63904,999,6247,.7010546E-3,.19085E-3,0
STARLINK-34114,2025-095R,2026-06-14T18:56:21.306336,15.27599096,.00016609,43.0019,348.2246,279.3767,80.6897,0,U,63905,999,6262,.60213714E-3,.16354E-3,0
STARLINK-33770,2025-095S,2026-06-15T04:46:59.818080,15.27583081,.0000363,43.0018,345.2712,354.3938,5.6910,0,U,63906,999,6269,.45069E-3,.12162E-3,0
STARLINK-34106,2025-095T,2026-06-15T04:41:25.958976,15.27589296,.0002408,42.9933,345.2395,270.8602,89.1974,0,U,63907,999,6269,.66091E-3,.17975E-3,0
STARLINK-34083,2025-095U,2026-06-14T18:50:48.580800,15.27596900,.0002011,43.0033,348.1939,271.8984,88.1638,0,U,63908,999,6262,.96705042E-3,.26459E-3,0
STARLINK-34066,2025-095V,2026-06-14T18:30:27.093888,15.27621443,.00031208,43.0066,348.0861,272.5141,87.5353,0,U,63909,999,6262,.58792174E-3,.15973E-3,0
STARLINK-34071,2025-095W,2026-06-14T18:39:42.271776,15.27586765,.00014067,42.9989,348.1295,253.2834,106.7864,0,U,63910,999,6262,.55386044E-3,.15013E-3,0
STARLINK-34038,2025-095X,2026-06-14T05:46:05.210112,15.27588062,.0003717,43.0059,350.9793,267.5777,92.4649,0,U,63911,999,6254,.71411E-3,.19448E-3,0
STARLINK-34031,2025-095Y,2026-06-14T05:51:38.925792,15.27591324,.000205,43.0020,351.0080,270.6514,89.4103,0,U,63912,999,6254,.86728E-3,.23689E-3,0
STARLINK-34070,2025-095Z,2026-06-14T05:40:33.307968,15.27593067,.0001055,43.0038,350.9491,280.1728,79.9005,0,U,63913,999,6254,.85599E-3,.23377E-3,0
STARLINK-34068,2025-095AA,2026-06-14T19:33:08.339904,15.27582682,.00020029,43.0247,347.5420,60.1709,299.9342,0,U,63914,999,6263,.56123665E-3,.15214E-3,0
STARLINK-34076,2025-095AB,2026-06-14T05:35:00.212640,15.27587697,.0001046,43.0022,350.9180,289.1693,70.9046,0,U,63915,999,6254,.72959E-3,.19873E-3,0
STARLINK-33910,2025-095AC,2026-06-15T04:35:52.289952,15.27604757,.0002237,42.9994,345.2115,277.9023,82.1575,0,U,63916,999,6269,.71328E-3,.19433E-3,0
STARLINK-34075,2025-095AD,2026-06-14T19:27:35.775072,15.27593822,.00032239,43.0045,347.5154,279.7197,80.3290,0,U,63917,999,6263,.51611592E-3,.13974E-3,0
YAOGAN-40 02A,2025-096A,2026-06-15T03:44:15.307008,14.12447677,.0002707,85.9957,188.8791,91.5166,268.6327,0,U,63918,999,5628,.55009E-4,.12E-5,0
YAOGAN-40 02B,2025-096B,2026-06-15T03:44:28.518432,14.12447807,.0002335,85.9951,188.8491,98.7406,261.4041,0,U,63919,999,5628,.73539E-4,.154E-5,0
YAOGAN-40 02C,2025-096C,2026-06-15T03:44:21.884640,14.12447475,.0002576,85.9955,188.1258,90.1961,269.9518,0,U,63920,999,7512,.72627E-4,.153E-5,0
TJS-19,2025-097A,2026-06-14T18:12:15.816960,1.00266243,.0002317,3.2906,317.4031,241.3714,118.5316,0,U,63924,999,411,0,-.27E-5,0
STARLINK-34012,2025-098A,2026-06-15T01:17:40.718400,14.98340356,.0002963,70.0018,29.0943,269.4141,90.6678,0,U,63926,999,6117,.10187E-3,.1123E-4,0
